CCSDS_OMM_VERS = 2.0
CREATION_DATE  = 
ORIGINATOR     = 

OBJECT_NAME    = STARLINK-36972
OBJECT_ID      = 2026-042D
CENTER_NAME    = EARTH
REF_FRAME      = TEME
TIME_SYSTEM    = UTC
MEAN_ELEMENT_THEORY = SGP/SGP4

EPOCH          = 2026-03-24T10:11:48.511392
MEAN_MOTION    = 15.80889332
ECCENTRICITY   = .0001929
INCLINATION    = 53.1578
RA_OF_ASC_NODE = 120.9136
ARG_OF_PERICENTER = 64.7285
MEAN_ANOMALY   = 295.3937

EPHEMERIS_TYPE = 0
CLASSIFICATION_TYPE = U
NORAD_CAT_ID   = 68072
ELEMENT_SET_NO = 999
REV_AT_EPOCH   = 441
BSTAR          = .53877E-3
MEAN_MOTION_DOT = .107049E-2
MEAN_MOTION_DDOT = 0

CCSDS_OMM_VERS = 2.0
CREATION_DATE  = 
ORIGINATOR     = 

OBJECT_NAME    = STARLINK-37074
OBJECT_ID      = 2026-042E
CENTER_NAME    = EARTH
REF_FRAME      = TEME
TIME_SYSTEM    = UTC
MEAN_ELEMENT_THEORY = SGP/SGP4

EPOCH          = 2026-03-24T10:09:38.697120
MEAN_MOTION    = 15.81012529
ECCENTRICITY   = .0001072
INCLINATION    = 53.1574
RA_OF_ASC_NODE = 120.9035
ARG_OF_PERICENTER = 136.1485
MEAN_ANOMALY   = 223.9623

EPHEMERIS_TYPE = 0
CLASSIFICATION_TYPE = U
NORAD_CAT_ID   = 68073
ELEMENT_SET_NO = 999
REV_AT_EPOCH   = 441
BSTAR          = .13315E-2
MEAN_MOTION_DOT = .272297E-2
MEAN_MOTION_DDOT = 0

CCSDS_OMM_VERS = 2.0
CREATION_DATE  = 
ORIGINATOR     = 

OBJECT_NAME    = STARLINK-37045
OBJECT_ID      = 2026-042F
CENTER_NAME    = EARTH
REF_FRAME      = TEME
TIME_SYSTEM    = UTC
MEAN_ELEMENT_THEORY = SGP/SGP4

EPOCH          = 2026-03-24T12:00:01.999296
MEAN_MOTION    = 15.75251172
ECCENTRICITY   = .0001564
INCLINATION    = 53.1593
RA_OF_ASC_NODE = 120.6588
ARG_OF_PERICENTER = 86.7009
MEAN_ANOMALY   = 281.8671

EPHEMERIS_TYPE = 0
CLASSIFICATION_TYPE = U
NORAD_CAT_ID   = 68074
ELEMENT_SET_NO = 999
REV_AT_EPOCH   = 443
BSTAR          = -.49598E-3
MEAN_MOTION_DOT = -.76032E-3
MEAN_MOTION_DDOT = 0

CCSDS_OMM_VERS = 2.0
CREATION_DATE  = 
ORIGINATOR     = 

OBJECT_NAME    = STARLINK-37026
OBJECT_ID      = 2026-042G
CENTER_NAME    = EARTH
REF_FRAME      = TEME
TIME_SYSTEM    = UTC
MEAN_ELEMENT_THEORY = SGP/SGP4

EPOCH          = 2026-03-24T12:11:25.868256
MEAN_MOTION    = 15.75308328
ECCENTRICITY   = .0001022
INCLINATION    = 53.1574
RA_OF_ASC_NODE = 120.7275
ARG_OF_PERICENTER = 97.6783
MEAN_ANOMALY   = 262.4353

EPHEMERIS_TYPE = 0
CLASSIFICATION_TYPE = U
NORAD_CAT_ID   = 68075
ELEMENT_SET_NO = 999
REV_AT_EPOCH   = 442
BSTAR          = .11915E-2
MEAN_MOTION_DOT = .18666E-2
MEAN_MOTION_DDOT = 0

CCSDS_OMM_VERS = 2.0
CREATION_DATE  = 
ORIGINATOR     = 

OBJECT_NAME    = STARLINK-37023
OBJECT_ID      = 2026-042H
CENTER_NAME    = EARTH
REF_FRAME      = TEME
TIME_SYSTEM    = UTC
MEAN_ELEMENT_THEORY = SGP/SGP4

EPOCH          = 2026-03-24T12:03:57.231936
MEAN_MOTION    = 15.75305507
ECCENTRICITY   = .000162
INCLINATION    = 53.1579
RA_OF_ASC_NODE = 120.6925
ARG_OF_PERICENTER = 79.9984
MEAN_ANOMALY   = 280.1219

EPHEMERIS_TYPE = 0
CLASSIFICATION_TYPE = U
NORAD_CAT_ID   = 68076
ELEMENT_SET_NO = 999
REV_AT_EPOCH   = 442
BSTAR          = .72622E-3
MEAN_MOTION_DOT = .1125E-2
MEAN_MOTION_DDOT = 0

CCSDS_OMM_VERS = 2.0
CREATION_DATE  = 
ORIGINATOR     = 

OBJECT_NAME    = STARLINK-37036
OBJECT_ID      = 2026-042J
CENTER_NAME    = EARTH
REF_FRAME      = TEME
TIME_SYSTEM    = UTC
MEAN_ELEMENT_THEORY = SGP/SGP4

EPOCH          = 2026-03-24T12:04:25.375008
MEAN_MOTION    = 15.75320981
ECCENTRICITY   = .0001841
INCLINATION    = 53.1574
RA_OF_ASC_NODE = 120.6945
ARG_OF_PERICENTER = 133.1584
MEAN_ANOMALY   = 226.9590

EPHEMERIS_TYPE = 0
CLASSIFICATION_TYPE = U
NORAD_CAT_ID   = 68077
ELEMENT_SET_NO = 999
REV_AT_EPOCH   = 442
BSTAR          = .79644E-3
MEAN_MOTION_DOT = .12369E-2
MEAN_MOTION_DDOT = 0

CCSDS_OMM_VERS = 2.0
CREATION_DATE  = 
ORIGINATOR     = 

OBJECT_NAME    = STARLINK-36973
OBJECT_ID      = 2026-042K
CENTER_NAME    = EARTH
REF_FRAME      = TEME
TIME_SYSTEM    = UTC
MEAN_ELEMENT_THEORY = SGP/SGP4

EPOCH          = 2026-03-24T13:05:13.996032
MEAN_MOTION    = 15.80968984
ECCENTRICITY   = .0001112
INCLINATION    = 53.1575
RA_OF_ASC_NODE = 120.2389
ARG_OF_PERICENTER = 55.9495
MEAN_ANOMALY   = 304.1633

EPHEMERIS_TYPE = 0
CLASSIFICATION_TYPE = U
NORAD_CAT_ID   = 68078
ELEMENT_SET_NO = 999
REV_AT_EPOCH   = 443
BSTAR          = .75369E-3
MEAN_MOTION_DOT = .151359E-2
MEAN_MOTION_DDOT = 0

CCSDS_OMM_VERS = 2.0
CREATION_DATE  = 
ORIGINATOR     = 

OBJECT_NAME    = STARLINK-37063
OBJECT_ID      = 2026-042L
CENTER_NAME    = EARTH
REF_FRAME      = TEME
TIME_SYSTEM    = UTC
MEAN_ELEMENT_THEORY = SGP/SGP4

EPOCH          = 2026-03-24T10:04:14.710080
MEAN_MOTION    = 15.81002223
ECCENTRICITY   = .000071
INCLINATION    = 53.1575
RA_OF_ASC_NODE = 120.8779
ARG_OF_PERICENTER = 96.2250
MEAN_ANOMALY   = 263.8854

EPHEMERIS_TYPE = 0
CLASSIFICATION_TYPE = U
NORAD_CAT_ID   = 68079
ELEMENT_SET_NO = 999
REV_AT_EPOCH   = 441
BSTAR          = .12844E-2
MEAN_MOTION_DOT = .262212E-2
MEAN_MOTION_DDOT = 0

CCSDS_OMM_VERS = 2.0
CREATION_DATE  = 
ORIGINATOR     = 

OBJECT_NAME    = STARLINK-37051
OBJECT_ID      = 2026-042M
CENTER_NAME    = EARTH
REF_FRAME      = TEME
TIME_SYSTEM    = UTC
MEAN_ELEMENT_THEORY = SGP/SGP4

EPOCH          = 2026-03-24T12:00:01.999296
MEAN_MOTION    = 15.78206536
ECCENTRICITY   = .0001209
INCLINATION    = 53.1588
RA_OF_ASC_NODE = 120.4554
ARG_OF_PERICENTER = 73.3078
MEAN_ANOMALY   = 34.4722

EPHEMERIS_TYPE = 0
CLASSIFICATION_TYPE = U
NORAD_CAT_ID   = 68080
ELEMENT_SET_NO = 999
REV_AT_EPOCH   = 443
BSTAR          = -.12409E-1
MEAN_MOTION_DOT = -.1892161E-1
MEAN_MOTION_DDOT = 0

CCSDS_OMM_VERS = 2.0
CREATION_DATE  = 
ORIGINATOR     = 

OBJECT_NAME    = STARLINK-37066
OBJECT_ID      = 2026-042N
CENTER_NAME    = EARTH
REF_FRAME      = TEME
TIME_SYSTEM    = UTC
MEAN_ELEMENT_THEORY = SGP/SGP4

EPOCH          = 2026-03-24T12:00:01.999296
MEAN_MOTION    = 15.75235527
ECCENTRICITY   = .0001664
INCLINATION    = 53.1598
RA_OF_ASC_NODE = 120.6019
ARG_OF_PERICENTER = 76.7292
MEAN_ANOMALY   = 319.4581

EPHEMERIS_TYPE = 0
CLASSIFICATION_TYPE = U
NORAD_CAT_ID   = 68081
ELEMENT_SET_NO = 999
REV_AT_EPOCH   = 443
BSTAR          = -.14738E-3
MEAN_MOTION_DOT = -.23168E-3
MEAN_MOTION_DDOT = 0

CCSDS_OMM_VERS = 2.0
CREATION_DATE  = 
ORIGINATOR     = 

OBJECT_NAME    = STARLINK-37054
OBJECT_ID      = 2026-042P
CENTER_NAME    = EARTH
REF_FRAME      = TEME
TIME_SYSTEM    = UTC
MEAN_ELEMENT_THEORY = SGP/SGP4

EPOCH          = 2026-03-24T11:30:57.656736
MEAN_MOTION    = 15.80957238
ECCENTRICITY   = .0001631
INCLINATION    = 53.1575
RA_OF_ASC_NODE = 120.5406
ARG_OF_PERICENTER = 71.8278
MEAN_ANOMALY   = 288.2922

EPHEMERIS_TYPE = 0
CLASSIFICATION_TYPE = U
NORAD_CAT_ID   = 68082
ELEMENT_SET_NO = 999
REV_AT_EPOCH   = 442
BSTAR          = .80341E-3
MEAN_MOTION_DOT = .161496E-2
MEAN_MOTION_DDOT = 0

CCSDS_OMM_VERS = 2.0
CREATION_DATE  = 
ORIGINATOR     = 

OBJECT_NAME    = STARLINK-37065
OBJECT_ID      = 2026-042Q
CENTER_NAME    = EARTH
REF_FRAME      = TEME
TIME_SYSTEM    = UTC
MEAN_ELEMENT_THEORY = SGP/SGP4

EPOCH          = 2026-03-24T11:57:24.776352
MEAN_MOTION    = 15.75330172
ECCENTRICITY   = .0001025
INCLINATION    = 53.1585
RA_OF_ASC_NODE = 120.6618
ARG_OF_PERICENTER = 106.6711
MEAN_ANOMALY   = 253.4422

EPHEMERIS_TYPE = 0
CLASSIFICATION_TYPE = U
NORAD_CAT_ID   = 68083
ELEMENT_SET_NO = 999
REV_AT_EPOCH   = 442
BSTAR          = .98556E-3
MEAN_MOTION_DOT = .153823E-2
MEAN_MOTION_DDOT = 0

