STARLINK-36972          
1 68072U 26042D   26083.42486703  .00107049  00000+0  53877-3 0  9993
2 68072  53.1578 120.9136 0001929  64.7285 295.3937 15.80889332  4413
STARLINK-37074          
1 68073U 26042E   26083.42336455  .00272297  00000+0  13315-2 0  9992
2 68073  53.1574 120.9035 0001072 136.1485 223.9623 15.81012529  4419
STARLINK-37045          
1 68074U 26042F   26083.50002314 -.00076032  00000+0 -49598-3 0  9990
2 68074  53.1593 120.6588 0001564  86.7009 281.8671 15.75251172  4439
STARLINK-37026          
1 68075U 26042G   26083.50793829  .00186660  00000+0  11915-2 0  9997
2 68075  53.1574 120.7275 0001022  97.6783 262.4353 15.75308328  4429
STARLINK-37023          
1 68076U 26042H   26083.50274574  .00112500  00000+0  72622-3 0  9994
2 68076  53.1579 120.6925 0001620  79.9984 280.1219 15.75305507  4420
STARLINK-37036          
1 68077U 26042J   26083.50307147  .00123690  00000+0  79644-3 0  9991
2 68077  53.1574 120.6945 0001841 133.1584 226.9590 15.75320981  4425
STARLINK-36973          
1 68078U 26042K   26083.54530088  .00151359  00000+0  75369-3 0  9991
2 68078  53.1575 120.2389 0001112  55.9495 304.1633 15.80968984  4433
STARLINK-37063          
1 68079U 26042L   26083.41961470  .00262212  00000+0  12844-2 0  9990
2 68079  53.1575 120.8779 0000710  96.2250 263.8854 15.81002223  4413
STARLINK-37051          
1 68080U 26042M   26083.50002314 -.01892161  00000+0 -12409-1 0  9996
2 68080  53.1588 120.4554 0001209  73.3078  34.4722 15.78206536  4431
STARLINK-37066          
1 68081U 26042N   26083.50002314 -.00023168  00000+0 -14738-3 0  9998
2 68081  53.1598 120.6019 0001664  76.7292 319.4581 15.75235527  4439
STARLINK-37054          
1 68082U 26042P   26083.47983399  .00161496  00000+0  80341-3 0  9994
2 68082  53.1575 120.5406 0001631  71.8278 288.2922 15.80957238  4425
STARLINK-37065          
1 68083U 26042Q   26083.49820343  .00153823  00000+0  98556-3 0  9998
2 68083  53.1585 120.6618 0001025 106.6711 253.4422 15.75330172  4424
